[{"OBJECT_NAME":"OBJECT Y","OBJECT_ID":"2023-085Y","EPOCH":"2026-03-09T22:38:54.992256","MEAN_MOTION":15.32500153,"ECCENTRICITY":0.00063298,"INCLINATION":97.4849,"RA_OF_ASC_NODE":180.8653,"ARG_OF_PERICENTER":67.4431,"MEAN_ANOMALY":292.748,"EPHEMERIS_TYPE":0,"CLASSIFICATION_TYPE":"U","NORAD_CAT_ID":57026,"ELEMENT_SET_NO":999,"REV_AT_EPOCH":15160,"BSTAR":0.00065512761,"MEAN_MOTION_DOT":0.00020524,"MEAN_MOTION_DDOT":0},{"OBJECT_NAME":"STARLINK-34296","OBJECT_ID":"2025-117P","EPOCH":"2026-03-09T22:12:49.622112","MEAN_MOTION":15.30217621,"ECCENTRICITY":0.00014866,"INCLINATION":53.1609,"RA_OF_ASC_NODE":38.3749,"ARG_OF_PERICENTER":82.7885,"MEAN_ANOMALY":277.3285,"EPHEMERIS_TYPE":0,"CLASSIFICATION_TYPE":"U","NORAD_CAT_ID":64216,"ELEMENT_SET_NO":999,"REV_AT_EPOCH":4459,"BSTAR":0.0012917003,"MEAN_MOTION_DOT":0.00038115,"MEAN_MOTION_DDOT":0}]
